OBJECT_NAME,OBJECT_ID,EPOCH,MEAN_MOTION,ECCENTRICITY,INCLINATION,RA_OF_ASC_NODE,ARG_OF_PERICENTER,MEAN_ANOMALY,EPHEMERIS_TYPE,CLASSIFICATION_TYPE,NORAD_CAT_ID,ELEMENT_SET_NO,REV_AT_EPOCH,BSTAR,MEAN_MOTION_DOT,MEAN_MOTION_DDOT
QIANFAN-147,2026-108C,2026-06-08T11:51:52.595136,14.17034313,.0015829,89.0117,23.1844,138.6262,221.6128,0,U,69106,999,311,.13103E-3,.278E-5,0
QIANFAN-148,2026-108D,2026-06-08T11:42:35.710848,14.17403425,.0016345,89.0118,23.1837,143.4367,216.7941,0,U,69107,999,311,.13174E-3,.281E-5,0
QIANFAN-149,2026-108E,2026-06-08T11:37:54.712992,14.17858012,.0015991,89.0121,23.1837,142.7040,217.5263,0,U,69108,999,311,.13354E-3,.287E-5,0
QIANFAN-150,2026-108F,2026-06-08T11:25:11.411328,14.18306438,.001602,89.0121,23.1826,144.4183,215.8078,0,U,69109,999,311,.13048E-3,.283E-5,0
QIANFAN-151,2026-108G,2026-06-08T11:16:21.820800,14.18802142,.0016132,89.0121,23.1815,143.0172,217.2133,0,U,69110,999,311,.1327E-3,.29E-5,0
QIANFAN-152,2026-108H,2026-06-08T11:08:32.739648,14.19419373,.0015331,89.0119,23.1804,142.9321,217.2931,0,U,69111,999,311,.12631E-3,.28E-5,0
QIANFAN-153,2026-108J,2026-06-08T12:42:22.425408,14.19642600,.0016542,89.0117,23.1713,142.6822,217.5521,0,U,69112,999,312,.12691E-3,.283E-5,0
QIANFAN-154,2026-108K,2026-06-08T12:31:48.595008,14.20190688,.0016217,89.0122,23.1710,140.6446,219.5926,0,U,69113,999,312,.12647E-3,.285E-5,0
QIANFAN-155,2026-108L,2026-06-08T12:37:01.311168,14.19536123,.0016921,89.0121,23.1716,140.9485,219.2930,0,U,69114,999,312,.1338E-3,.297E-5,0
QIANFAN-156,2026-108M,2026-06-08T12:23:47.519808,14.20958579,.0016561,89.0124,23.1708,142.1688,218.0670,0,U,69115,999,312,.13165E-3,.3E-5,0
QIANFAN-157,2026-108N,2026-06-08T11:42:40.385952,14.17079510,.0017044,89.0115,23.1659,164.8203,195.3501,0,U,69116,999,312,-.94968E+0,-.1766676E-1,0
QIANFAN-158,2026-108P,2026-06-08T12:13:11.849952,14.21848064,.0016498,89.0120,23.1688,143.4764,216.7555,0,U,69117,999,312,.13355E-3,.309E-5,0
QIANFAN-159,2026-108Q,2026-06-08T10:25:24.423744,14.22294328,.0016202,89.0119,23.1759,143.5577,216.6721,0,U,69118,999,311,.13145E-3,.307E-5,0
QIANFAN-160,2026-108R,2026-06-08T12:01:21.393120,14.22718854,.0015924,89.0121,23.1679,143.1758,217.0530,0,U,69119,999,312,.13275E-3,.312E-5,0
QIANFAN-161,2026-108S,2026-06-08T10:14:19.679424,14.23189617,.0015935,89.0121,23.1752,144.1537,216.0727,0,U,69120,999,311,.12506E-3,.297E-5,0
QIANFAN-162,2026-108T,2026-06-08T10:10:37.316928,14.23625091,.0015771,89.0120,23.1747,145.3257,214.8967,0,U,69121,999,311,.12724E-3,.305E-5,0
SMILE,2026-109A,2026-05-24T15:40:35.120928,14.57062785,.00091232,70.0007,229.2745,259.5159,100.4951,0,U,69123,999,80,-.42378883E-3,-.1976E-4,0
STARLINK-37726,2026-110A,2026-06-08T12:00:02.000160,15.49167192,.0001517,97.2854,355.6392,85.1162,201.3632,0,U,69124,999,426,.23031E-2,.127115E-2,0
STARLINK-37722,2026-110B,2026-06-08T12:00:02.000160,15.54421098,.0001889,97.2850,355.7998,90.2027,206.0787,0,U,69125,999,431,-.41558E-1,-.2384257E-1,0
STARLINK-37715,2026-110C,2026-06-08T12:00:02.000160,15.64016678,.0001937,97.2850,355.8599,69.0389,19.4610,0,U,69126,999,426,-.30946E-1,-.2537891E-1,0
STARLINK-37706,2026-110D,2026-06-08T12:00:02.000160,15.64363145,.0001928,97.2850,355.8641,76.4420,20.0016,0,U,69127,999,426,-.30242E-1,-.251757E-1,0
STARLINK-37723,2026-110E,2026-06-08T12:00:02.000160,15.64752681,.000203,97.2851,355.8678,73.6746,31.5764,0,U,69128,999,426,-.30094E-1,-.2541064E-1,0
STARLINK-37720,2026-110F,2026-06-08T12:00:02.000160,15.49137474,.0001695,97.2859,355.6605,83.3050,252.1256,0,U,69129,999,426,.23192E-2,.127883E-2,0
STARLINK-37533,2026-110G,2026-06-08T11:27:11.172096,15.67007742,.0007265,97.2864,355.8564,172.6710,187.4658,0,U,69130,999,426,.56655E-3,.60469E-3,0
STARLINK-37530,2026-110H,2026-06-08T11:25:08.709600,15.66923646,.0001938,97.2847,355.8572,125.7812,234.3629,0,U,69131,999,426,-.11772E-1,-.1110883E-1,0
STARLINK-37660,2026-110J,2026-06-08T12:00:02.000160,15.58311128,.0001444,97.2844,355.8233,82.1979,271.9326,0,U,69132,999,426,-.27652E-1,-.1855872E-1,0
STARLINK-37633,2026-110K,2026-06-08T12:00:02.000160,15.60182790,.0001306,97.2848,355.8291,53.8445,323.3864,0,U,69133,999,426,-.37434E-1,-.2627187E-1,0
STARLINK-37361,2026-110L,2026-06-08T12:00:02.000160,15.67244330,.0001953,97.2851,355.8907,81.8964,77.0268,0,U,69134,999,426,-.27216E-1,-.2541199E-1,0
STARLINK-37372,2026-110M,2026-06-08T12:00:02.000160,15.58005960,.0001466,97.2850,355.8505,76.1780,339.0713,0,U,69135,999,426,-.3829E-1,-.2493747E-1,0
