QIANFAN-147             
1 69106U 26108C   26159.49435874  .00000278  00000+0  13103-3 0  9993
2 69106  89.0117  23.1844 0015829 138.6262 221.6128 14.17034313  3119
QIANFAN-148             
1 69107U 26108D   26159.48791332  .00000281  00000+0  13174-3 0  9999
2 69107  89.0118  23.1837 0016345 143.4367 216.7941 14.17403425  3119
QIANFAN-149             
1 69108U 26108E   26159.48466103  .00000287  00000+0  13354-3 0  9991
2 69108  89.0121  23.1837 0015991 142.7040 217.5263 14.17858012  3112
QIANFAN-150             
1 69109U 26108F   26159.47582652  .00000283  00000+0  13048-3 0  9995
2 69109  89.0121  23.1826 0016020 144.4183 215.8078 14.18306438  3118
QIANFAN-151             
1 69110U 26108G   26159.46969700  .00000290  00000+0  13270-3 0  9994
2 69110  89.0121  23.1815 0016132 143.0172 217.2133 14.18802142  3116
QIANFAN-152             
1 69111U 26108H   26159.46426782  .00000280  00000+0  12631-3 0  9992
2 69111  89.0119  23.1804 0015331 142.9321 217.2931 14.19419373  3113
QIANFAN-153             
1 69112U 26108J   26159.52942622  .00000283  00000+0  12691-3 0  9995
2 69112  89.0117  23.1713 0016542 142.6822 217.5521 14.19642600  3129
QIANFAN-154             
1 69113U 26108K   26159.52209022  .00000285  00000+0  12647-3 0  9999
2 69113  89.0122  23.1710 0016217 140.6446 219.5926 14.20190688  3129
QIANFAN-155             
1 69114U 26108L   26159.52570962  .00000297  00000+0  13380-3 0  9992
2 69114  89.0121  23.1716 0016921 140.9485 219.2930 14.19536123  3121
QIANFAN-156             
1 69115U 26108M   26159.51652222  .00000300  00000+0  13165-3 0  9998
2 69115  89.0124  23.1708 0016561 142.1688 218.0670 14.20958579  3128
QIANFAN-157             
1 69116U 26108N   26159.48796743 -.01766676  00000+0 -94968+0 0  9996
2 69116  89.0115  23.1659 0017044 164.8203 195.3501 14.17079510  3120
QIANFAN-158             
1 69117U 26108P   26159.50916493  .00000309  00000+0  13355-3 0  9992
2 69117  89.0120  23.1688 0016498 143.4764 216.7555 14.21848064  3126
QIANFAN-159             
1 69118U 26108Q   26159.43431046  .00000307  00000+0  13145-3 0  9996
2 69118  89.0119  23.1759 0016202 143.5577 216.6721 14.22294328  3112
QIANFAN-160             
1 69119U 26108R   26159.50094205  .00000312  00000+0  13275-3 0  9997
2 69119  89.0121  23.1679 0015924 143.1758 217.0530 14.22718854  3123
QIANFAN-161             
1 69120U 26108S   26159.42661666  .00000297  00000+0  12506-3 0  9999
2 69120  89.0121  23.1752 0015935 144.1537 216.0727 14.23189617  3111
QIANFAN-162             
1 69121U 26108T   26159.42404302  .00000305  00000+0  12724-3 0  9994
2 69121  89.0120  23.1747 0015771 145.3257 214.8967 14.23625091  3118
SMILE                   
1 69123U 26109A   26144.65318427 -.00001976  00000+0 -42379-3 0  9994
2 69123  70.0007 229.2745 0009123 259.5159 100.4951 14.57062785   802
STARLINK-37726          
1 69124U 26110A   26159.50002315  .00127115  00000+0  23031-2 0  9998
2 69124  97.2854 355.6392 0001517  85.1162 201.3632 15.49167192  4263
STARLINK-37722          
1 69125U 26110B   26159.50002315 -.02384257  00000+0 -41558-1 0  9998
2 69125  97.2850 355.7998 0001889  90.2027 206.0787 15.54421098  4315
STARLINK-37715          
1 69126U 26110C   26159.50002315 -.02537891  00000+0 -30946-1 0  9992
2 69126  97.2850 355.8599 0001937  69.0389  19.4610 15.64016678  4263
STARLINK-37706          
1 69127U 26110D   26159.50002315 -.02517570  00000+0 -30242-1 0  9994
2 69127  97.2850 355.8641 0001928  76.4420  20.0016 15.64363145  4262
STARLINK-37723          
1 69128U 26110E   26159.50002315 -.02541064  00000+0 -30094-1 0  9995
2 69128  97.2851 355.8678 0002030  73.6746  31.5764 15.64752681  4263
STARLINK-37720          
1 69129U 26110F   26159.50002315  .00127883  00000+0  23192-2 0  9993
2 69129  97.2859 355.6605 0001695  83.3050 252.1256 15.49137474  4269
STARLINK-37533          
1 69130U 26110G   26159.47721264  .00060469  00000+0  56655-3 0  9999
2 69130  97.2864 355.8564 0007265 172.6710 187.4658 15.67007742  4267
STARLINK-37530          
1 69131U 26110H   26159.47579525 -.01110883  00000+0 -11772-1 0  9999
2 69131  97.2847 355.8572 0001938 125.7812 234.3629 15.66923646  4260
STARLINK-37660          
1 69132U 26110J   26159.50002315 -.01855872  00000+0 -27652-1 0  9990
2 69132  97.2844 355.8233 0001444  82.1979 271.9326 15.58311128  4262
STARLINK-37633          
1 69133U 26110K   26159.50002315 -.02627187  00000+0 -37434-1 0  9997
2 69133  97.2848 355.8291 0001306  53.8445 323.3864 15.60182790  4264
STARLINK-37361          
1 69134U 26110L   26159.50002315 -.02541199  00000+0 -27216-1 0  9993
2 69134  97.2851 355.8907 0001953  81.8964  77.0268 15.67244330  4265
STARLINK-37372          
1 69135U 26110M   26159.50002315 -.02493747  00000+0 -38290-1 0  9993
2 69135  97.2850 355.8505 0001466  76.1780 339.0713 15.58005960  4261
